[
    {
        "Altitude(m)": 610399.5745926908,
        "Argument of Periapsis(deg)": 0.0,
        "Eccentricity": 0.0,
        "Inclination(deg)": 60.0,
        "Latitude(deg)": 52.111461170699485,
        "Longitude(deg)": 117.58434040331944,
        "Mean Anomaly(deg)": 65.45449999999998,
        "RAAN(deg)": 170.00000000000003,
        "Satellite Name": "Test1 752",
        "Satellite Number": 752,
        "Semi-Major Axis(m)": 6980739.136638005,
        "Time(s)": 0
    },
    {
        "Altitude(m)": 610481.7253929392,
        "Argument of Periapsis(deg)": 0.00010418945913296404,
        "Eccentricity": 0.0,
        "Inclination(deg)": 60.0,
        "Latitude(deg)": 52.47106303426722,
        "Longitude(deg)": 118.36647930422218,
        "Mean Anomaly(deg)": 66.07460614546183,
        "RAAN(deg)": 169.99957995086027,
        "Satellite Name": "Test1 752",
        "Satellite Number": 752,
        "Semi-Major Axis(m)": 6980739.136638005,
        "Time(s)": 10
    },
    {
        "Altitude(m)": 610562.4149936686,
        "Argument of Periapsis(deg)": 0.0002083789182659281,
        "Eccentricity": 0.0,
        "Inclination(deg)": 60.0,
        "Latitude(deg)": 52.82481746417209,
        "Longitude(deg)": 119.16203130242623,
        "Mean Anomaly(deg)": 66.69471229092366,
        "RAAN(deg)": 169.99915990172053,
        "Satellite Name": "Test1 752",
        "Satellite Number": 752,
        "Semi-Major Axis(m)": 6980739.136638005,
        "Time(s)": 20
    },
    {
        "Altitude(m)": 610641.595929095,
        "Argument of Periapsis(deg)": 0.00031256837739889213,
        "Eccentricity": 0.0,
        "Inclination(deg)": 60.0,
        "Latitude(deg)": 53.17255493215904,
        "Longitude(deg)": 119.97116090902813,
        "Mean Anomaly(deg)": 67.31481843638547,
        "RAAN(deg)": 169.99873985258077,
        "Satellite Name": "Test1 752",
        "Satellite Number": 752,
        "Semi-Major Axis(m)": 6980739.136638005,
        "Time(s)": 30
    },
    {
        "Altitude(m)": 610719.2216898898,
        "Argument of Periapsis(deg)": 0.0004167578365318562,
        "Eccentricity": 0.0,
        "Inclination(deg)": 60.0,
        "Latitude(deg)": 53.51410243403881,
        "Longitude(deg)": 120.79402102236801,
        "Mean Anomaly(deg)": 67.93492458184728,
        "RAAN(deg)": 169.99831980344106,
        "Satellite Name": "Test1 752",
        "Satellite Number": 752,
        "Semi-Major Axis(m)": 6980739.136638005,
        "Time(s)": 40
    },
    {
        "Altitude(m)": 610795.2467455158,
        "Argument of Periapsis(deg)": 0.0005209472956648203,
        "Eccentricity": 0.0,
        "Inclination(deg)": 60.0,
        "Latitude(deg)": 53.849283611656645,
        "Longitude(deg)": 121.63075051381273,
        "Mean Anomaly(deg)": 68.55503072730914,
        "RAAN(deg)": 169.99789975430127,
        "Satellite Name": "Test1 752",
        "Satellite Number": 752,
        "Semi-Major Axis(m)": 6980739.136638005,
        "Time(s)": 50
    },
    {
        "Altitude(m)": 610869.6265660505,
        "Argument of Periapsis(deg)": 0.0006251367547977843,
        "Eccentricity": 0.0,
        "Inclination(deg)": 60.0,
        "Latitude(deg)": 54.17791889918557,
        "Longitude(deg)": 122.48147326077152,
        "Mean Anomaly(deg)": 69.17513687277096,
        "RAAN(deg)": 169.99747970516154,
        "Satellite Name": "Test1 752",
        "Satellite Number": 752,
        "Semi-Major Axis(m)": 6980739.136638005,
        "Time(s)": 60
    },
    {
        "Altitude(m)": 610942.317643524,
        "Argument of Periapsis(deg)": 0.0007293262139307483,
        "Eccentricity": 0.0,
        "Inclination(deg)": 60.0,
        "Latitude(deg)": 54.49982569540889,
        "Longitude(deg)": 123.34629711837152,
        "Mean Anomaly(deg)": 69.79524301823282,
        "RAAN(deg)": 169.9970596560218,
        "Satellite Name": "Test1 752",
        "Satellite Number": 752,
        "Semi-Major Axis(m)": 6980739.136638005,
        "Time(s)": 70
    },
    {
        "Altitude(m)": 611013.2775127264,
        "Argument of Periapsis(deg)": 0.0008335156730637124,
        "Eccentricity": 0.0,
        "Inclination(deg)": 60.0,
        "Latitude(deg)": 54.81481856361809,
        "Longitude(deg)": 124.2253113225332,
        "Mean Anomaly(deg)": 70.41534916369464,
        "RAAN(deg)": 169.99663960688207,
        "Satellite Name": "Test1 752",
        "Satellite Number": 752,
        "Semi-Major Axis(m)": 6980739.136638005,
        "Time(s)": 80
    },
    {
        "Altitude(m)": 611082.4647715174,
        "Argument of Periapsis(deg)": 0.0009377051321966765,
        "Eccentricity": 0.0,
        "Inclination(deg)": 60.0,
        "Latitude(deg)": 55.12270946068252,
        "Longitude(deg)": 125.11858535724568,
        "Mean Anomaly(deg)": 71.03545530915646,
        "RAAN(deg)": 169.9962195577423,
        "Satellite Name": "Test1 752",
        "Satellite Number": 752,
        "Semi-Major Axis(m)": 6980739.136638005,
        "Time(s)": 90
    },
    {
        "Altitude(m)": 611149.8391006099,
        "Argument of Periapsis(deg)": 0.0010418945913296407,
        "Eccentricity": 0.0,
        "Inclination(deg)": 60.0,
        "Latitude(deg)": 55.42330799675205,
        "Longitude(deg)": 126.02616778175391,
        "Mean Anomaly(deg)": 71.65556145461828,
        "RAAN(deg)": 169.99579950860257,
        "Satellite Name": "Test1 752",
        "Satellite Number": 752,
        "Semi-Major Axis(m)": 6980739.136638005,
        "Time(s)": 100
    },
    {
        "Altitude(m)": 611215.3612828085,
        "Argument of Periapsis(deg)": 0.0011460840504626045,
        "Eccentricity": 0.0,
        "Inclination(deg)": 60.0,
        "Latitude(deg)": 55.71642172692311,
        "Longitude(deg)": 126.9480835150066,
        "Mean Anomaly(deg)": 72.27566760008014,
        "RAAN(deg)": 169.99537945946284,
        "Satellite Name": "Test1 752",
        "Satellite Number": 752,
        "Semi-Major Axis(m)": 6980739.136638005,
        "Time(s)": 110
    },
    {
        "Altitude(m)": 611278.9932217108,
        "Argument of Periapsis(deg)": 0.0012502735095955685,
        "Eccentricity": 0.0,
        "Inclination(deg)": 60.0,
        "Latitude(deg)": 56.001856476023505,
        "Longitude(deg)": 127.88433261506793,
        "Mean Anomaly(deg)": 72.89577374554196,
        "RAAN(deg)": 169.9949594103231,
        "Satellite Name": "Test1 752",
        "Satellite Number": 752,
        "Semi-Major Axis(m)": 6980739.136638005,
        "Time(s)": 120
    },
    {
        "Altitude(m)": 611340.6979598602,
        "Argument of Periapsis(deg)": 0.0013544629687285324,
        "Eccentricity": 0.0,
        "Inclination(deg)": 60.0,
        "Latitude(deg)": 56.279416697465095,
        "Longitude(deg)": 128.83488905433626,
        "Mean Anomaly(deg)": 73.51587989100376,
        "RAAN(deg)": 169.99453936118334,
        "Satellite Name": "Test1 752",
        "Satellite Number": 752,
        "Semi-Major Axis(m)": 6980739.136638005,
        "Time(s)": 130
    },
    {
        "Altitude(m)": 611400.4396963575,
        "Argument of Periapsis(deg)": 0.0014586524278614966,
        "Eccentricity": 0.0,
        "Inclination(deg)": 60.0,
        "Latitude(deg)": 56.54890586685941,
        "Longitude(deg)": 129.7996979932186,
        "Mean Anomaly(deg)": 74.1359860364656,
        "RAAN(deg)": 169.9941193120436,
        "Satellite Name": "Test1 752",
        "Satellite Number": 752,
        "Semi-Major Axis(m)": 6980739.136638005,
        "Time(s)": 140
    },
    {
        "Altitude(m)": 611458.1838038678,
        "Argument of Periapsis(deg)": 0.0015628418869944607,
        "Eccentricity": 0.0,
        "Inclination(deg)": 60.0,
        "Latitude(deg)": 56.810126910788995,
        "Longitude(deg)": 130.7786745953301,
        "Mean Anomaly(deg)": 74.75609218192744,
        "RAAN(deg)": 169.99369926290387,
        "Satellite Name": "Test1 752",
        "Satellite Number": 752,
        "Semi-Major Axis(m)": 6980739.136638005,
        "Time(s)": 150
    },
    {
        "Altitude(m)": 611513.8968451088,
        "Argument of Periapsis(deg)": 0.0016670313461274247,
        "Eccentricity": 0.0,
        "Inclination(deg)": 60.0,
        "Latitude(deg)": 57.062882670786536,
        "Longitude(deg)": 131.7717028903988,
        "Mean Anomaly(deg)": 75.37619832738928,
        "RAAN(deg)": 169.99327921376414,
        "Satellite Name": "Test1 752",
        "Satellite Number": 752,
        "Semi-Major Axis(m)": 6980739.136638005,
        "Time(s)": 160
    },
    {
        "Altitude(m)": 611567.546588722,
        "Argument of Periapsis(deg)": 0.0017712208052603888,
        "Eccentricity": 0.0,
        "Inclination(deg)": 60.0,
        "Latitude(deg)": 57.306976402184496,
        "Longitude(deg)": 132.77863319269306,
        "Mean Anomaly(deg)": 75.99630447285112,
        "RAAN(deg)": 169.99285916462438,
        "Satellite Name": "Test1 752",
        "Satellite Number": 752,
        "Semi-Major Axis(m)": 6980739.136638005,
        "Time(s)": 170
    },
    {
        "Altitude(m)": 611619.1020245841,
        "Argument of Periapsis(deg)": 0.001875410264393353,
        "Eccentricity": 0.0,
        "Inclination(deg)": 60.0,
        "Latitude(deg)": 57.54221230705881,
        "Longitude(deg)": 133.79928112290412,
        "Mean Anomaly(deg)": 76.61641061831295,
        "RAAN(deg)": 169.99243911548464,
        "Satellite Name": "Test1 752",
        "Satellite Number": 752,
        "Semi-Major Axis(m)": 6980739.136638005,
        "Time(s)": 180
    },
    {
        "Altitude(m)": 611668.5333785022,
        "Argument of Periapsis(deg)": 0.0019795997235263173,
        "Eccentricity": 0.0,
        "Inclination(deg)": 60.0,
        "Latitude(deg)": 57.76839610001842,
        "Longitude(deg)": 134.83342674405415,
        "Mean Anomaly(deg)": 77.23651676377476,
        "RAAN(deg)": 169.9920190663449,
        "Satellite Name": "Test1 752",
        "Satellite Number": 752,
        "Semi-Major Axis(m)": 6980739.136638005,
        "Time(s)": 190
    }
]